{
    "week": 293,
    "satellites": [
        {
            "Name": "BEIDOU-2 G6 (C02)",
            "Line1": "1 38953U 12059A   24320.73763877 -.00000165  00000+0  00000+0 0  9995",
            "Line2": "2 38953   2.9457  79.2520 0006848 287.2805  38.2618  1.00267310 44107",
            "SatelliteNumber": "38953",
            "Classification": "U",
            "LaunchYear": "12",
            "LaunchNumber": "059",
            "PieceOfLaunch": "A",
            "EpochYear": "24",
            "EpochDay": 320.73763877,
            "FirstDerivativeMeanMotion": -1.65e-06,
            "SecondDerivativeMeanMotion": "00000+0",
            "BSTAR": "00000+0",
            "SetNumber": "999",
            "Inclination": 2.9457,
            "RAAN": 79.252,
            "Eccentricity": 0.0006848,
            "ArgumentOfPerigee": 287.2805,
            "MeanAnomaly": 38.2618,
            "MeanMotion": 1.0026731,
            "RevolutionNumber": "4410"
        },
        {
            "Name": "BEIDOU-3S IGSO-1S (C31)",
            "Line1": "1 40549U 15019A   24320.91438310 -.00000199  00000+0  00000+0 0  9996",
            "Line2": "2 40549  50.2921 302.3917 0035675 198.7588 340.3401  1.00270469 35271",
            "SatelliteNumber": "40549",
            "Classification": "U",
            "LaunchYear": "15",
            "LaunchNumber": "019",
            "PieceOfLaunch": "A",
            "EpochYear": "24",
            "EpochDay": 320.9143831,
            "FirstDerivativeMeanMotion": -1.99e-06,
            "SecondDerivativeMeanMotion": "00000+0",
            "BSTAR": "00000+0",
            "SetNumber": "999",
            "Inclination": 50.2921,
            "RAAN": 302.3917,
            "Eccentricity": 0.0035675,
            "ArgumentOfPerigee": 198.7588,
            "MeanAnomaly": 340.3401,
            "MeanMotion": 1.00270469,
            "RevolutionNumber": "3527"
        },
        {
            "Name": "BEIDOU-3S M2S (C58)",
            "Line1": "1 40748U 15037A   24320.48418386 -.00000072  00000+0  00000+0 0  9990",
            "Line2": "2 40748  55.3649 321.8842 0013231 258.4853 101.3794  1.86229029 63340",
            "SatelliteNumber": "40748",
            "Classification": "U",
            "LaunchYear": "15",
            "LaunchNumber": "037",
            "PieceOfLaunch": "A",
            "EpochYear": "24",
            "EpochDay": 320.48418386,
            "FirstDerivativeMeanMotion": -7.2e-07,
            "SecondDerivativeMeanMotion": "00000+0",
            "BSTAR": "00000+0",
            "SetNumber": "999",
            "Inclination": 55.3649,
            "RAAN": 321.8842,
            "Eccentricity": 0.0013231,
            "ArgumentOfPerigee": 258.4853,
            "MeanAnomaly": 101.3794,
            "MeanMotion": 1.86229029,
            "RevolutionNumber": "6334"
        },
        {
            "Name": "BEIDOU-3S M1S (C57)",
            "Line1": "1 40749U 15037B   24321.29432287 -.00000076  00000+0  00000+0 0  9991",
            "Line2": "2 40749  55.3670 321.8432 0004149 318.9136  41.0654  1.86227458 63354",
            "SatelliteNumber": "40749",
            "Classification": "U",
            "LaunchYear": "15",
            "LaunchNumber": "037",
            "PieceOfLaunch": "B",
            "EpochYear": "24",
            "EpochDay": 321.29432287,
            "FirstDerivativeMeanMotion": -7.6e-07,
            "SecondDerivativeMeanMotion": "00000+0",
            "BSTAR": "00000+0",
            "SetNumber": "999",
            "Inclination": 55.367,
            "RAAN": 321.8432,
            "Eccentricity": 0.0004149,
            "ArgumentOfPerigee": 318.9136,
            "MeanAnomaly": 41.0654,
            "MeanMotion": 1.86227458,
            "RevolutionNumber": "6335"
        },
        {
            "Name": "BEIDOU-3S IGSO-2S (C56)",
            "Line1": "1 40938U 15053A   24321.31195913 -.00000167  00000+0  00000+0 0  9995",
            "Line2": "2 40938  50.1240 265.6246 0052258 189.2794 169.9250  1.00270885 33550",
            "SatelliteNumber": "40938",
            "Classification": "U",
            "LaunchYear": "15",
            "LaunchNumber": "053",
            "PieceOfLaunch": "A",
            "EpochYear": "24",
            "EpochDay": 321.31195913,
            "FirstDerivativeMeanMotion": -1.67e-06,
            "SecondDerivativeMeanMotion": "00000+0",
            "BSTAR": "00000+0",
            "SetNumber": "999",
            "Inclination": 50.124,
            "RAAN": 265.6246,
            "Eccentricity": 0.0052258,
            "ArgumentOfPerigee": 189.2794,
            "MeanAnomaly": 169.925,
            "MeanMotion": 1.00270885,
            "RevolutionNumber": "3355"
        },
        {
            "Name": "BEIDOU-2 IGSO-6 (C13)",
            "Line1": "1 41434U 16021A   24320.69354934 -.00000189  00000+0  00000+0 0  9997",
            "Line2": "2 41434  59.4045  43.8288 0054717 224.6399 132.7094  1.00284835 31671",
            "SatelliteNumber": "41434",
            "Classification": "U",
            "LaunchYear": "16",
            "LaunchNumber": "021",
            "PieceOfLaunch": "A",
            "EpochYear": "24",
            "EpochDay": 320.69354934,
            "FirstDerivativeMeanMotion": -1.89e-06,
            "SecondDerivativeMeanMotion": "00000+0",
            "BSTAR": "00000+0",
            "SetNumber": "999",
            "Inclination": 59.4045,
            "RAAN": 43.8288,
            "Eccentricity": 0.0054717,
            "ArgumentOfPerigee": 224.6399,
            "MeanAnomaly": 132.7094,
            "MeanMotion": 1.00284835,
            "RevolutionNumber": "3167"
        },
        {
            "Name": "BEIDOU-2 G7 (C03)",
            "Line1": "1 41586U 16037A   24321.02877028 -.00000346  00000+0  00000+0 0  9999",
            "Line2": "2 41586   1.7425  66.9787 0006763 342.2548 127.2958  1.00269345  1092",
            "SatelliteNumber": "41586",
            "Classification": "U",
            "LaunchYear": "16",
            "LaunchNumber": "037",
            "PieceOfLaunch": "A",
            "EpochYear": "24",
            "EpochDay": 321.02877028,
            "FirstDerivativeMeanMotion": -3.46e-06,
            "SecondDerivativeMeanMotion": "00000+0",
            "BSTAR": "00000+0",
            "SetNumber": "999",
            "Inclination": 1.7425,
            "RAAN": 66.9787,
            "Eccentricity": 0.0006763,
            "ArgumentOfPerigee": 342.2548,
            "MeanAnomaly": 127.2958,
            "MeanMotion": 1.00269345,
            "RevolutionNumber": "109"
        },
        {
            "Name": "BEIDOU-3 M1 (C19)",
            "Line1": "1 43001U 17069A   24320.83311349 -.00000032  00000+0  00000+0 0  9998",
            "Line2": "2 43001  56.1896  82.2163 0007826 299.0667  60.8231  1.86231028 47832",
            "SatelliteNumber": "43001",
            "Classification": "U",
            "LaunchYear": "17",
            "LaunchNumber": "069",
            "PieceOfLaunch": "A",
            "EpochYear": "24",
            "EpochDay": 320.83311349,
            "FirstDerivativeMeanMotion": -3.2e-07,
            "SecondDerivativeMeanMotion": "00000+0",
            "BSTAR": "00000+0",
            "SetNumber": "999",
            "Inclination": 56.1896,
            "RAAN": 82.2163,
            "Eccentricity": 0.0007826,
            "ArgumentOfPerigee": 299.0667,
            "MeanAnomaly": 60.8231,
            "MeanMotion": 1.86231028,
            "RevolutionNumber": "4783"
        },
        {
            "Name": "BEIDOU-3 M2 (C20)",
            "Line1": "1 43002U 17069B   24320.23373428 -.00000029  00000+0  00000+0 0  9995",
            "Line2": "2 43002  56.1882  82.2726 0005475 331.4448  28.4938  1.86230788 47813",
            "SatelliteNumber": "43002",
            "Classification": "U",
            "LaunchYear": "17",
            "LaunchNumber": "069",
            "PieceOfLaunch": "B",
            "EpochYear": "24",
            "EpochDay": 320.23373428,
            "FirstDerivativeMeanMotion": -2.9e-07,
            "SecondDerivativeMeanMotion": "00000+0",
            "BSTAR": "00000+0",
            "SetNumber": "999",
            "Inclination": 56.1882,
            "RAAN": 82.2726,
            "Eccentricity": 0.0005475,
            "ArgumentOfPerigee": 331.4448,
            "MeanAnomaly": 28.4938,
            "MeanMotion": 1.86230788,
            "RevolutionNumber": "4781"
        },
        {
            "Name": "BEIDOU-3 M7 (C27)",
            "Line1": "1 43107U 18003A   24321.59234876 -.00000078  00000+0  00000+0 0  9997",
            "Line2": "2 43107  54.8225 322.3705 0002234  64.9079 295.1253  1.86232315 46605",
            "SatelliteNumber": "43107",
            "Classification": "U",
            "LaunchYear": "18",
            "LaunchNumber": "003",
            "PieceOfLaunch": "A",
            "EpochYear": "24",
            "EpochDay": 321.59234876,
            "FirstDerivativeMeanMotion": -7.8e-07,
            "SecondDerivativeMeanMotion": "00000+0",
            "BSTAR": "00000+0",
            "SetNumber": "999",
            "Inclination": 54.8225,
            "RAAN": 322.3705,
            "Eccentricity": 0.0002234,
            "ArgumentOfPerigee": 64.9079,
            "MeanAnomaly": 295.1253,
            "MeanMotion": 1.86232315,
            "RevolutionNumber": "4660"
        }
    ]
}